NORAD_CAT_ID,OBJECT_NAME,OBJECT_TYPE,EPOCH,MEAN_MOTION,ECCENTRICITY,INCLINATION,RA_OF_ASC_NODE,ARG_OF_PERICENTER,MEAN_ANOMALY,BSTAR,MEAN_MOTION_DOT,MEAN_MOTION_DDOT,TLE_LINE0,TLE_LINE1,TLE_LINE2,SEMIMAJOR_AXIS,PERIOD,APOGEE,PERIGEE,DECAYED
53980.0,STARLINK-5133,PAYLOAD,2023-06-17 06:56:25,15.0883534,0.0001259,53.2179,11.8569,76.5948,283.5184,5.4425e-05,5.78e-06,0.0,0 STARLINK-5133,1 53980U 22125S   23168.28917878  .00000578  00000-0  54425-4 0  9991,2 53980  53.2179  11.8569 0001259  76.5948 283.5184 15.08835340 39044,6917.895,95.438,540.631,538.889,0.0
53980.0,STARLINK-5133,PAYLOAD,2023-06-17 19:39:30,15.08820955,9.39e-05,53.2171,9.4781,76.9881,283.1216,-0.00020883,-3.608e-05,0.0,0 STARLINK-5133,1 53980U 22125S   23168.81910660 -.00003608  00000-0 -20883-3 0  9991,2 53980  53.2171   9.4781 0000939  76.9881 283.1216 15.08820955 39058,6917.939,95.439,540.453,539.154,0.0
53980.0,STARLINK-5133,PAYLOAD,2023-06-18 06:47:12,15.08831529,0.0001021,53.217,7.3969,76.5166,283.594,-1.6714e-05,-5.54e-06,0.0,0 STARLINK-5133,1 53980U 22125S   23169.28278569 -.00000554  00000-0 -16714-4 0  9994,2 53980  53.2170   7.3969 0001021  76.5166 283.5940 15.08831529 39199,6917.906,95.438,540.478,539.065,0.0
53980.0,STARLINK-5133,PAYLOAD,2023-06-18 13:08:45,15.08837426,9.99e-05,53.217,6.2073,73.7357,286.3745,7.8945e-05,9.69e-06,0.0,0 STARLINK-5133,1 53980U 22125S   23169.54774451  .00000969  00000-0  78945-4 0  9996,2 53980  53.2170   6.2073 0000999  73.7357 286.3745 15.08837426 39160,6917.888,95.438,540.444,539.062,0.0
53980.0,STARLINK-5133,PAYLOAD,2023-06-18 19:30:17,15.08843867,0.0001017,53.2166,5.0182,70.255,289.8552,0.00037474,5.682e-05,0.0,0 STARLINK-5133,1 53980U 22125S   23169.81270463  .00005682  00000-0  37474-3 0  9998,2 53980  53.2166   5.0182 0001017  70.2550 289.8552 15.08843867 39207,6917.869,95.437,540.437,539.03,0.0
53980.0,STARLINK-5133,PAYLOAD,2023-06-19 06:37:59,15.08851922,0.0001057,53.2165,2.9367,62.7379,297.3721,0.00075648,0.00011776,0.0,0 STARLINK-5133,1 53980U 22125S   23170.27638632  .00011776  00000-0  75648-3 0  9992,2 53980  53.2165   2.9367 0001057  62.7379 297.3721 15.08851922 39276,6917.844,95.437,540.44,538.978,0.0
53980.0,STARLINK-5133,PAYLOAD,2023-06-19 19:21:04,15.08863883,0.0001066,53.2167,0.5572,62.365,297.745,0.00067458,0.00010471,0.0,0 STARLINK-5133,1 53980U 22125S   23170.80629942  .00010471  00000-0  67458-3 0  9996,2 53980  53.2167   0.5572 0001066  62.3650 297.7450 15.08863883 39359,6917.807,95.436,540.41,538.935,0.0
53980.0,STARLINK-5133,PAYLOAD,2023-06-20 08:04:09,15.08857266,9.72e-05,53.217,358.1784,65.9843,294.125,0.00035201,5.321e-05,0.0,0 STARLINK-5133,1 53980U 22125S   23171.33621647  .00005321  00000-0  35201-3 0  9998,2 53980  53.2170 358.1784 0000972  65.9843 294.1250 15.08857266 39502,6917.828,95.436,540.365,539.02,0.0
53980.0,STARLINK-5133,PAYLOAD,2023-06-20 12:50:18,15.08840293,8.91e-05,53.2174,357.2858,22.7421,337.361,-0.00015684,-2.783e-05,0.0,0 STARLINK-5133,1 53980U 22125S   23171.53493833 -.00002783  00000-0 -15684-3 0  9998,2 53980  53.2174 357.2858 0000891  22.7421 337.3610 15.08840293 39468,6917.879,95.438,540.361,539.128,0.0
53980.0,STARLINK-5133,PAYLOAD,2023-06-20 17:36:27,15.0884909,8.97e-05,53.2173,356.3939,80.7099,279.3994,0.00010423,1.372e-05,0.0,0 STARLINK-5133,1 53980U 22125S   23171.73365624  .00001372  00000-0  10423-3 0  9993,2 53980  53.2173 356.3939 0000897  80.7099 279.3994 15.08849090 39563,6917.853,95.437,540.338,539.097,0.0
53980.0,STARLINK-5133,PAYLOAD,2023-06-20 20:47:14,15.08849269,8.71e-05,53.2174,355.7992,80.6897,279.4193,0.00033404,5.034e-05,0.0,0 STARLINK-5133,1 53980U 22125S   23171.86613545  .00005034  00000-0  33404-3 0  9998,2 53980  53.2174 355.7992 0000871  80.6897 279.4193 15.08849269 39518,6917.852,95.437,540.32,539.115,0.0
53980.0,STARLINK-5133,PAYLOAD,2023-06-21 12:41:05,15.08836424,0.0001002,53.2185,352.827,84.2008,275.9099,0.00019812,2.866e-05,0.0,0 STARLINK-5133,1 53980U 22125S   23172.52854035  .00002866  00000-0  19812-3 0  9990,2 53980  53.2185 352.8270 0001002  84.2008 275.9099 15.08836424 39614,6917.891,95.438,540.449,539.063,0.0
53980.0,STARLINK-5133,PAYLOAD,2023-06-21 17:27:15,15.08840904,9.92e-05,53.2176,351.9345,65.2008,294.9087,3.3582e-06,-2.34e-06,0.0,0 STARLINK-5133,1 53980U 22125S   23172.72725945 -.00000234  00000-0  33582-5 0  9999,2 53980  53.2176 351.9345 0000992  65.2008 294.9087 15.08840904 39710,6917.878,95.437,540.429,539.056,0.0
53980.0,STARLINK-5133,PAYLOAD,2023-06-22 18:53:25,15.08839836,9.44e-05,53.2173,347.1774,88.3912,271.7188,0.00014758,2.062e-05,0.0,0 STARLINK-5133,1 53980U 22125S   23173.78710276  .00002062  00000-0  14758-3 0  9999,2 53980  53.2173 347.1774 0000944  88.3912 271.7188 15.08839836 39871,6917.881,95.438,540.399,539.093,0.0
53980.0,STARLINK-5133,PAYLOAD,2023-06-23 20:19:35,15.08850531,9.35e-05,53.2171,342.4194,94.4904,265.6195,0.00024702,3.647e-05,0.0,0 STARLINK-5133,1 53980U 22125S   23174.84693795  .00003647  00000-0  24702-3 0  9993,2 53980  53.2171 342.4194 0000935  94.4904 265.6195 15.08850531 40037,6917.848,95.437,540.36,539.066,0.0
53980.0,STARLINK-5133,PAYLOAD,2023-06-24 16:59:36,15.08843968,9.27e-05,53.2164,338.5544,89.5819,270.528,0.00013384,1.843e-05,0.0,0 STARLINK-5133,1 53980U 22125S   23175.70806143  .00001843  00000-0  13384-3 0  9992,2 53980  53.2164 338.5544 0000927  89.5819 270.5280 15.08843968 40165,6917.868,95.437,540.375,539.092,0.0
53980.0,STARLINK-5133,PAYLOAD,2023-06-25 04:07:18,15.08837895,0.0001202,53.2175,336.4706,81.8351,278.2777,4.2579e-05,3.9e-06,0.0,0 STARLINK-5133,1 53980U 22125S   23176.17174494  .00000390  00000-0  42579-4 0  9996,2 53980  53.2175 336.4706 0001202  81.8351 278.2777 15.08837895 40233,6917.887,95.438,540.583,538.92,0.0
53980.0,STARLINK-5133,PAYLOAD,2023-06-25 23:11:56,15.08851751,9.94e-05,53.2172,332.9034,74.2315,285.8786,0.00031808,4.78e-05,0.0,0 STARLINK-5133,1 53980U 22125S   23176.96662042  .00004780  00000-0  31808-3 0  9993,2 53980  53.2172 332.9034 0000994  74.2315 285.8786 15.08851751 40352,6917.844,95.437,540.397,539.022,0.0
53980.0,STARLINK-5133,PAYLOAD,2023-06-26 05:33:29,15.08830741,8.1e-05,53.2172,331.7127,92.8244,267.2841,-2.8937e-05,-7.48e-06,0.0,0 STARLINK-5133,1 53980U 22125S   23177.23158868 -.00000748  00000-0 -28937-4 0  9992,2 53980  53.2172 331.7127 0000810  92.8244 267.2841 15.08830741 40392,6917.909,95.438,540.334,539.213,0.0
53980.0,STARLINK-5133,PAYLOAD,2023-06-26 16:41:11,15.08844362,9.15e-05,53.2173,329.6321,81.3865,278.7231,0.00022603,3.312e-05,0.0,0 STARLINK-5133,1 53980U 22125S   23177.69526645  .00003312  00000-0  22603-3 0  9995,2 53980  53.2173 329.6321 0000915  81.3865 278.7231 15.08844362 40465,6917.867,95.437,540.365,539.099,0.0
53980.0,STARLINK-5133,PAYLOAD,2023-06-28 10:01:12,15.08842459,0.0001054,53.2171,321.9015,88.2813,271.83,0.00023485,3.452e-05,0.0,0 STARLINK-5133,1 53980U 22125S   23179.41750777  .00003452  00000-0  23485-3 0  9996,2 53980  53.2171 321.9015 0001054  88.2813 271.8300 15.08842459 40727,6917.873,95.437,540.467,539.009,0.0
53980.0,STARLINK-5133,PAYLOAD,2023-06-29 09:51:59,15.08833394,8.13e-05,53.2174,317.4418,78.8296,281.2787,-6.5119e-05,-1.324e-05,0.0,0 STARLINK-5133,1 53980U 22125S   23180.41111065 -.00001324  00000-0 -65119-4 0  9998,2 53980  53.2174 317.4418 0000813  78.8296 281.2787 15.08833394 40877,6917.901,95.438,540.328,539.203,0.0
53980.0,STARLINK-5133,PAYLOAD,2023-06-29 17:48:55,15.08845994,9.7e-05,53.2177,315.9543,95.5997,264.5106,0.00013844,1.917e-05,0.0,0 STARLINK-5133,1 53980U 22125S   23180.74230572  .00001917  00000-0  13844-3 0  9992,2 53980  53.2177 315.9543 0000970  95.5997 264.5106 15.08845994 40924,6917.862,95.437,540.398,539.056,0.0
53980.0,STARLINK-5133,PAYLOAD,2023-06-30 19:15:05,15.08853718,9.01e-05,53.2174,311.1967,91.9468,268.1627,0.0003637,5.507e-05,0.0,0 STARLINK-5133,1 53980U 22125S   23181.80214339  .00005507  00000-0  36370-3 0  9991,2 53980  53.2174 311.1967 0000901  91.9468 268.1627 15.08853718 41085,6917.838,95.437,540.327,539.08,0.0
53980.0,STARLINK-5133,PAYLOAD,2023-07-01 07:58:11,15.08841047,0.0002457,53.2167,308.8205,58.6382,301.485,0.00015289,2.146e-05,0.0,0 STARLINK-5133,1 53980U 22125S   23182.33207246  .00002146  00000-0  15289-3 0  9991,2 53980  53.2167 308.8205 0002457  58.6382 301.4850 15.08841047 41168,6917.877,95.437,541.442,538.042,0.0
53980.0,STARLINK-5133,PAYLOAD,2023-07-02 01:27:25,15.0883667,9.83e-05,53.2182,305.5468,89.5915,270.519,4.1955e-05,3.8e-06,0.0,0 STARLINK-5133,1 53980U 22125S   23183.06071279  .00000380  00000-0  41955-4 0  9995,2 53980  53.2182 305.5468 0000983  89.5915 270.5190 15.08836670 41278,6917.891,95.438,540.436,539.076,0.0
53980.0,STARLINK-5133,PAYLOAD,2023-07-03 17:12:03,15.08856281,9.13e-05,53.2169,298.1124,87.2926,272.8171,0.0004864,7.465e-05,0.0,0 STARLINK-5133,1 53980U 22125S   23184.71670848  .00007465  00000-0  48640-3 0  9993,2 53980  53.2169 298.1124 0000913  87.2926 272.8171 15.08856281 41521,6917.831,95.437,540.327,539.064,0.0
53980.0,STARLINK-5133,PAYLOAD,2023-07-04 12:16:41,15.08844687,8.32e-05,53.2169,294.5442,85.0464,275.0623,0.00018232,2.615e-05,0.0,0 STARLINK-5133,1 53980U 22125S   23185.51159232  .00002615  00000-0  18232-3 0  9997,2 53980  53.2169 294.5442 0000832  85.0464 275.0623 15.08844687 41644,6917.866,95.437,540.307,539.155,0.0
53980.0,STARLINK-5133,PAYLOAD,2023-07-05 13:42:51,15.08842293,8.36e-05,53.2175,289.7872,82.527,277.5817,0.00025163,3.719e-05,0.0,0 STARLINK-5133,1 53980U 22125S   23186.57143459  .00003719  00000-0  25163-3 0  9995,2 53980  53.2175 289.7872 0000836  82.5270 277.5817 15.08842293 41806,6917.873,95.437,540.317,539.16,0.0
53980.0,STARLINK-5133,PAYLOAD,2023-07-06 07:12:06,15.08840465,9.26e-05,53.2179,286.5148,83.6322,276.4775,0.000282,4.203e-05,0.0,0 STARLINK-5133,1 53980U 22125S   23187.30007797  .00004203  00000-0  28200-3 0  9995,2 53980  53.2179 286.5148 0000926  83.6322 276.4775 15.08840465 41913,6917.879,95.438,540.385,539.103,0.0
